[Satellite]
VERSION=1.1
NAME=NIMIQ 1
NICKNAME=NIMIQ 1
TLE1=1 25740U 99027A   11054.34600376  .00000000  00000-0  10000-3 0  8325
TLE2=2 25740   0.0163 257.9481 0005143  73.9209 214.3884  1.00265845 43120
